GLOBALSTAR M084         
1 38040U 11080A   24244.67938914 -.00000100  00000+0  23007-4 0  9995
2 38040  51.9989 209.8415 0000501  96.0896  80.9250 12.62266412586107
GLOBALSTAR M080         
1 38041U 11080B   24244.65185383 -.00000106  00000+0 -10819-4 0  9992
2 38041  52.0042 211.4306 0000718  83.6196  88.2252 12.62264800586228
GLOBALSTAR M092         
1 38043U 11080D   24244.79679461 -.00000105  00000+0 -55641-5 0  9996
2 38043  52.0069 256.7677 0000320 121.6914  49.3440 12.62265565585407
GLOBALSTAR M086         
1 38045U 11080F   24244.55927691 -.00000103  00000+0  27673-5 0  9994
2 38045  51.9890 161.8376 0001436  43.8304 127.7597 12.62266160586988
GLOBALSTAR M097         
1 39072U 13005A   24244.78596165 -.00000080  00000+0  13198-3 0  9996
2 39072  52.0048  75.4023 0000825  59.8280 300.2668 12.62270071534263
GLOBALSTAR M093         
1 39073U 13005B   24244.75899690 -.00000082  00000+0  12268-3 0  9992
2 39073  51.9808  69.2462 0000800  57.6730 302.4214 12.62263409534216
